{"type": "FeatureCollection", "features": [ {"type": "Feature", "properties": {"norad_id": 30071, "name": "FENGYUN 1C DEB", "group": "fengyun-1c-debris", "lat": -47.37480123348921, "lon": -103.10088178614427, "alt_km": 739.0709620809184, "timestamp": "2025-12-13T03:42:11.546503+00:00", "meta": {"OBJECT_NAME": "FENGYUN 1C DEB", "OBJECT_ID": "1999-025PY", "EPOCH": "2025-12-12T05:18:18.219744", "MEAN_MOTION": 14.52129345, "ECCENTRICITY": 0.00393864, "INCLINATION": 98.6583, "RA_OF_ASC_NODE": 85.4671, "ARG_OF_PERICENTER": 111.3526, "MEAN_ANOMALY": 280.3019, "EPHEMERIS_TYPE": 0, "CLASSIFICATION_TYPE": "U", "NORAD_CAT_ID": 30071, "ELEMENT_SET_NO": 999, "REV_AT_EPOCH": 98219, "BSTAR": 0.0039370547, "MEAN_MOTION_DOT": 0.00016097, "MEAN_MOTION_DDOT": 0}, "tle": {"line1": "1 30071U 99025PY  25346.22104421  .00016097  00000+0  39371-2 0  9999", "line2": "2 30071  98.6583  85.4671 0039386 111.3526 280.3019 14.52129345982199"}}, "geometry": {"type": "Point", "coordinates": [-103.10088178614427, -47.37480123348921]}}, {"type": "Feature", "properties": {"norad_id": 30072, "name": "FENGYUN 1C DEB", "group": "fengyun-1c-debris", "lat": 11.473620745854813, "lon": -42.69621779059969, "alt_km": 776.4059655510864, "timestamp": "2025-12-13T03:42:11.546513+00:00", "meta": {"OBJECT_NAME": "FENGYUN 1C DEB", "OBJECT_ID": "1999-025PZ", "EPOCH": "2025-12-12T06:52:28.740000", "MEAN_MOTION": 14.37768992, "ECCENTRICITY": 0.00595996, "INCLINATION": 99.0764, "RA_OF_ASC_NODE": 134.5285, "ARG_OF_PERICENTER": 273.7547, "MEAN_ANOMALY": 85.6825, "EPHEMERIS_TYPE": 0, "CLASSIFICATION_TYPE": "U", "NORAD_CAT_ID": 30072, "ELEMENT_SET_NO": 999, "REV_AT_EPOCH": 97164, "BSTAR": 0.0049470446, "MEAN_MOTION_DOT": 0.00015187, "MEAN_MOTION_DDOT": 0}, "tle": {"line1": "1 30072U 99025PZ  25346.28644375  .00015187  00000+0  49470-2 0  9993", "line2": "2 30072  99.0764 134.5285 0059599 273.7547  85.6825 14.37768992971646"}}, "geometry": {"type": "Point", "coordinates": [-42.69621779059969, 11.473620745854813]}}, {"type": "Feature", "properties": {"norad_id": 30073, "name": "FENGYUN 1C DEB", "group": "fengyun-1c-debris", "lat": 49.49992399316839, "lon": -50.88912938894264, "alt_km": 850.4633835244667, "timestamp": "2025-12-13T03:42:11.546523+00:00", "meta": {"OBJECT_NAME": "FENGYUN 1C DEB", "OBJECT_ID": "1999-025QA", "EPOCH": "2025-12-11T21:08:18.278304", "MEAN_MOTION": 14.18658294, "ECCENTRICITY": 0.0053638, "INCLINATION": 99.4119, "RA_OF_ASC_NODE": 318.9587, "ARG_OF_PERICENTER": 283.214, "MEAN_ANOMALY": 106.2154, "EPHEMERIS_TYPE": 0, "CLASSIFICATION_TYPE": "U", "NORAD_CAT_ID": 30073, "ELEMENT_SET_NO": 999, "REV_AT_EPOCH": 96913, "BSTAR": 0.0024584, "MEAN_MOTION_DOT": 5.124e-05, "MEAN_MOTION_DDOT": 0}, "tle": {"line1": "1 30073U 99025QA  25345.88076711  .00005124  00000+0  24584-2 0  9991", "line2": "2 30073  99.4119 318.9587 0053638 283.2140 106.2154 14.18658294969139"}}, "geometry": {"type": "Point", "coordinates": [-50.88912938894264, 49.49992399316839]}}, {"type": "Feature", "properties": {"norad_id": 30074, "name": "FENGYUN 1C DEB", "group": "fengyun-1c-debris", "lat": 23.163472996727474, "lon": -122.65585477583522, "alt_km": 779.0299546103824, "timestamp": "2025-12-13T03:42:11.546533+00:00", "meta": {"OBJECT_NAME": "FENGYUN 1C DEB", "OBJECT_ID": "1999-025QB", "EPOCH": "2025-12-12T03:10:24.111264", "MEAN_MOTION": 14.12849661, "ECCENTRICITY": 0.00973786, "INCLINATION": 99.1295, "RA_OF_ASC_NODE": 52.3574, "ARG_OF_PERICENTER": 153.6211, "MEAN_ANOMALY": 206.9965, "EPHEMERIS_TYPE": 0, "CLASSIFICATION_TYPE": "U", "NORAD_CAT_ID": 30074, "ELEMENT_SET_NO": 999, "REV_AT_EPOCH": 96653, "BSTAR": 0.0022975034, "MEAN_MOTION_DOT": 4.426e-05, "MEAN_MOTION_DDOT": 0}, "tle": {"line1": "1 30074U 99025QB  25346.13222351  .00004426  00000+0  22975-2 0  9990", "line2": "2 30074  99.1295  52.3574 0097378 153.6211 206.9965 14.12849661966538"}}, "geometry": {"type": "Point", "coordinates": [-122.65585477583522, 23.163472996727474]}}, {"type": "Feature", "properties": {"norad_id": 30075, "name": "FENGYUN 1C DEB", "group": "fengyun-1c-debris", "lat": -40.76857527359599, "lon": -150.70521082364107, "alt_km": 879.2707886100152, "timestamp": "2025-12-13T03:42:11.546543+00:00", "meta": {"OBJECT_NAME": "FENGYUN 1C DEB", "OBJECT_ID": "1999-025QC", "EPOCH": "2025-12-12T02:38:39.268608", "MEAN_MOTION": 13.92533078, "ECCENTRICITY": 0.0091042, "INCLINATION": 99.362, "RA_OF_ASC_NODE": 36.4175, "ARG_OF_PERICENTER": 178.7468, "MEAN_ANOMALY": 210.3609, "EPHEMERIS_TYPE": 0, "CLASSIFICATION_TYPE": "U", "NORAD_CAT_ID": 30075, "ELEMENT_SET_NO": 999, "REV_AT_EPOCH": 96056, "BSTAR": 9.1364448e-05, "MEAN_MOTION_DOT": 7.6e-07, "MEAN_MOTION_DDOT": 0}, "tle": {"line1": "1 30075U 99025QC  25346.11017672  .00000076  00000+0  91364-4 0  9994", "line2": "2 30075  99.3620  36.4175 0091042 178.7468 210.3609 13.92533078960567"}}, "geometry": {"type": "Point", "coordinates": [-150.70521082364107, -40.76857527359599]}}, {"type": "Feature", "properties": {"norad_id": 30076, "name": "FENGYUN 1C DEB", "group": "fengyun-1c-debris", "lat": -70.66860253371404, "lon": 126.22804371690408, "alt_km": 1105.6123413405094, "timestamp": "2025-12-13T03:42:11.546553+00:00", "meta": {"OBJECT_NAME": "FENGYUN 1C DEB", "OBJECT_ID": "1999-025QD", "EPOCH": "2025-12-11T22:50:25.291104", "MEAN_MOTION": 13.76289959, "ECCENTRICITY": 0.0175704, "INCLINATION": 99.2381, "RA_OF_ASC_NODE": 332.701, "ARG_OF_PERICENTER": 95.9435, "MEAN_ANOMALY": 320.8954, "EPHEMERIS_TYPE": 0, "CLASSIFICATION_TYPE": "U", "NORAD_CAT_ID": 30076, "ELEMENT_SET_NO": 999, "REV_AT_EPOCH": 94883, "BSTAR": 0.00040426, "MEAN_MOTION_DOT": 4e-06, "MEAN_MOTION_DDOT": 0}, "tle": {"line1": "1 30076U 99025QD  25345.95168161  .00000400  00000+0  40426-3 0  9999", "line2": "2 30076  99.2381 332.7010 0175704  95.9435 320.8954 13.76289959948837"}}, "geometry": {"type": "Point", "coordinates": [126.22804371690408, -70.66860253371404]}}, {"type": "Feature", "properties": {"norad_id": 30077, "name": "FENGYUN 1C DEB", "group": "fengyun-1c-debris", "lat": -41.28855433249728, "lon": 175.0169019275704, "alt_km": 864.7634008177765, "timestamp": "2025-12-13T03:42:11.546563+00:00", "meta": {"OBJECT_NAME": "FENGYUN 1C DEB", "OBJECT_ID": "1999-025QE", "EPOCH": "2025-12-12T01:20:58.641792", "MEAN_MOTION": 14.07079371, "ECCENTRICITY": 0.00204059, "INCLINATION": 98.7582, "RA_OF_ASC_NODE": 1.7337, "ARG_OF_PERICENTER": 266.152, "MEAN_ANOMALY": 156.6476, "EPHEMERIS_TYPE": 0, "CLASSIFICATION_TYPE": "U", "NORAD_CAT_ID": 30077, "ELEMENT_SET_NO": 999, "REV_AT_EPOCH": 97103, "BSTAR": 0.00014948448, "MEAN_MOTION_DOT": 2.08e-06, "MEAN_MOTION_DDOT": 0}, "tle": {"line1": "1 30077U 99025QE  25346.05623428  .00000208  00000+0  14948-3 0  9990", "line2": "2 30077  98.7582   1.7337 0020405 266.1520 156.6476 14.07079371971036"}}, "geometry": {"type": "Point", "coordinates": [175.0169019275704, -41.28855433249728]}}, {"type": "Feature", "properties": {"norad_id": 30078, "name": "FENGYUN 1C DEB", "group": "fengyun-1c-debris", "lat": 44.190045513370386, "lon": -109.28439326098372, "alt_km": 841.6557996984748, "timestamp": "2025-12-13T03:42:11.546573+00:00", "meta": {"OBJECT_NAME": "FENGYUN 1C DEB", "OBJECT_ID": "1999-025QF", "EPOCH": "2025-12-12T05:14:04.661664", "MEAN_MOTION": 14.23130732, "ECCENTRICITY": 0.00526995, "INCLINATION": 98.832, "RA_OF_ASC_NODE": 61.0834, "ARG_OF_PERICENTER": 281.974, "MEAN_ANOMALY": 99.7672, "EPHEMERIS_TYPE": 0, "CLASSIFICATION_TYPE": "U", "NORAD_CAT_ID": 30078, "ELEMENT_SET_NO": 999, "REV_AT_EPOCH": 97106, "BSTAR": 0.0020324944, "MEAN_MOTION_DOT": 4.612e-05, "MEAN_MOTION_DDOT": 0}, "tle": {"line1": "1 30078U 99025QF  25346.21810951  .00004612  00000+0  20325-2 0  9996", "line2": "2 30078  98.8320  61.0834 0052699 281.9740  99.7672 14.23130732971063"}}, "geometry": {"type": "Point", "coordinates": [-109.28439326098372, 44.190045513370386]}}, {"type": "Feature", "properties": {"norad_id": 30079, "name": "FENGYUN 1C DEB", "group": "fengyun-1c-debris", "lat": -17.458537076845968, "lon": -140.18152554717045, "alt_km": 906.4110268554186, "timestamp": "2025-12-13T03:42:11.546583+00:00", "meta": {"OBJECT_NAME": "FENGYUN 1C DEB", "OBJECT_ID": "1999-025QG", "EPOCH": "2025-12-12T02:53:37.291200", "MEAN_MOTION": 14.00793725, "ECCENTRICITY": 0.00846157, "INCLINATION": 99.0355, "RA_OF_ASC_NODE": 41.6648, "ARG_OF_PERICENTER": 300.7458, "MEAN_ANOMALY": 87.6834, "EPHEMERIS_TYPE": 0, "CLASSIFICATION_TYPE": "U", "NORAD_CAT_ID": 30079, "ELEMENT_SET_NO": 999, "REV_AT_EPOCH": 96529, "BSTAR": 0.00027744643, "MEAN_MOTION_DOT": 3.82e-06, "MEAN_MOTION_DDOT": 0}, "tle": {"line1": "1 30079U 99025QG  25346.12057050  .00000382  00000+0  27745-3 0  9994", "line2": "2 30079  99.0355  41.6648 0084615 300.7458  87.6834 14.00793725965297"}}, "geometry": {"type": "Point", "coordinates": [-140.18152554717045, -17.458537076845968]}}, {"type": "Feature", "properties": {"norad_id": 30080, "name": "FENGYUN 1C DEB", "group": "fengyun-1c-debris", "lat": -78.37332447989053, "lon": 15.738672752455754, "alt_km": 939.3289134946663, "timestamp": "2025-12-13T03:42:11.546593+00:00", "meta": {"OBJECT_NAME": "FENGYUN 1C DEB", "OBJECT_ID": "1999-025QH", "EPOCH": "2025-12-12T04:20:17.046240", "MEAN_MOTION": 14.10820355, "ECCENTRICITY": 0.01338452, "INCLINATION": 98.6984, "RA_OF_ASC_NODE": 326.7196, "ARG_OF_PERICENTER": 62.1692, "MEAN_ANOMALY": 314.7048, "EPHEMERIS_TYPE": 0, "CLASSIFICATION_TYPE": "U", "NORAD_CAT_ID": 30080, "ELEMENT_SET_NO": 999, "REV_AT_EPOCH": 97230, "BSTAR": 0.00045873545, "MEAN_MOTION_DOT": 8.52e-06, "MEAN_MOTION_DDOT": 0}, "tle": {"line1": "1 30080U 99025QH  25346.18075285  .00000852  00000+0  45874-3 0  9997", "line2": "2 30080  98.6984 326.7196 0133845  62.1692 314.7048 14.10820355972308"}}, "geometry": {"type": "Point", "coordinates": [15.738672752455754, -78.37332447989053]}}]}